H1 CPF 01  gfz 2022 11 28 01  8321 tandemx   
H2 1003001  6202 36605    2022 11 28 00 59 42 2022 12 03 00 00 42   120 1 1  0 0 0
H9
10 0 59911   3582.000000  0    -921240.526  -5596078.681  -3918953.223
10 0 59911   3702.000000  0   -1189996.928  -6016975.960  -3145474.551
10 0 59911   3822.000000  0   -1444428.342  -6328462.015  -2316803.672
10 0 59911   3942.000000  0   -1678116.333  -6525306.448  -1447441.089
10 0 59911   4062.000000  0   -1884926.239  -6604393.491   -552634.841
10 0 59911   4182.000000  0   -2059155.256  -6564780.836    351891.444
10 0 59911   4302.000000  0   -2195673.985  -6407714.914   1250221.924
10 0 59911   4422.000000  0   -2290057.394  -6136601.970   2126537.315
10 0 59911   4542.000000  0   -2338701.533  -5756935.251   2965402.738
10 0 59911   4662.000000  0   -2338922.549  -5276179.963   3752047.639
10 0 59911   4782.000000  0   -2289035.793  -4703619.719   4472631.218
10 0 59911   4902.000000  0   -2188413.619  -4050169.474   5114488.395
10 0 59911   5022.000000  0   -2037521.102  -3328158.893   5666353.157
10 0 59911   5142.000000  0   -1837927.495  -2551090.200   6118553.406
10 0 59911   5262.000000  0   -1592293.544  -1733379.500   6463174.779
10 0 59911   5382.000000  0   -1304336.340   -890085.535   6694193.794
10 0 59911   5502.000000  0    -978772.811    -36628.945   6807576.751
10 0 59911   5622.000000  0    -621242.770    811489.313   6801344.786
10 0 59911   5742.000000  0    -238211.201   1638968.815   6675607.181
10 0 59911   5862.000000  0     163148.682   2430985.534   6432559.664
10 0 59911   5982.000000  0     575089.316   3173457.294   6076448.018
10 0 59911   6102.000000  0     989436.852   3853295.245   5613498.744
10 0 59911   6222.000000  0    1397751.682   4458638.324   5051815.894
10 0 59911   6342.000000  0    1791498.866   4979066.148   4401245.230
10 0 59911   6462.000000  0    2162225.215   5405785.430   3673206.076
10 0 59911   6582.000000  0    2501740.064   5731786.159   2880495.601
10 0 59911   6702.000000  0    2802294.284   5951967.936   2037063.710
10 0 59911   6822.000000  0    3056754.456   6063225.951   1157762.336
10 0 59911   6942.000000  0    3258765.874   6064496.187    258077.466
10 0 59911   7062.000000  0    3402901.311   5956760.403   -646151.119
10 0 59911   7182.000000  0    3484792.574   5743009.347  -1539017.290
10 0 59911   7302.000000  0    3501240.357   5428166.054  -2404836.015
10 0 59911   7422.000000  0    3450300.512   5018970.973  -3228425.896
10 0 59911   7542.000000  0    3331343.340   4523831.346  -3995379.704
10 0 59911   7662.000000  0    3145085.448   3952640.380  -4692315.930
10 0 59911   7782.000000  0    2893594.406   3316572.383  -5307108.816
10 0 59911   7902.000000  0    2580266.496   2627857.059  -5829092.423
10 0 59911   8022.000000  0    2209778.584   1899539.287  -6249235.939
10 0 59911   8142.000000  0    1788014.992   1145229.735  -6560288.299
10 0 59911   8262.000000  0    1321972.931    378851.771  -6756891.213
10 0 59911   8382.000000  0     819646.680   -385611.330  -6835663.005
10 0 59911   8502.000000  0     289890.949  -1134366.879  -6795250.193
10 0 59911   8622.000000  0    -257731.747  -1854054.984  -6636346.441
10 0 59911   8742.000000  0    -813118.623  -2531979.945  -6361682.725
10 0 59911   8862.000000  0   -1365808.676  -3156330.845  -5975986.533
10 0 59911   8982.000000  0   -1905174.696  -3716385.438  -5485908.267
10 0 59911   9102.000000  0   -2420623.466  -4202695.357  -4899918.373
10 0 59911   9222.000000  0   -2901802.366  -4607251.076  -4228173.111
10 0 59911   9342.000000  0   -3338807.331  -4923620.863  -3482348.273
10 0 59911   9462.000000  0   -3722387.325  -5147061.064  -2675444.573
10 0 59911   9582.000000  0   -4044142.059  -5274595.507  -1821566.391
10 0 59911   9702.000000  0   -4296707.639  -5305061.016   -935676.550
10 0 59911   9822.000000  0   -4473924.859  -5239117.341    -33331.450
10 0 59911   9942.000000  0   -4570985.477  -5079220.541    869598.088
10 0 59911  10062.000000  0   -4584552.711  -4829559.646   1757214.690
10 0 59911  10182.000000  0   -4512851.651  -4495957.094   2613883.991
10 0 59911  10302.000000  0   -4355727.688  -4085736.570   3424518.265
10 0 59911  10422.000000  0   -4114672.241  -3607562.034   4174848.808
10 0 59911  10542.000000  0   -3792814.286  -3071251.345   4851681.916
10 0 59911  10662.000000  0   -3394878.283  -2487569.507   5443131.067
10 0 59911  10782.000000  0   -2927111.445  -1868008.862   5938822.953
10 0 59911  10902.000000  0   -2397181.386  -1224560.001   6330076.172
10 0 59911  11022.000000  0   -1814045.792   -569476.152   6610049.131
10 0 59911  11142.000000  0   -1187795.744     84962.679   6773852.746
10 0 59911  11262.000000  0    -529479.423    726678.453   6818628.751
10 0 59911  11382.000000  0     149092.473   1344017.071   6743596.988
10 0 59911  11502.000000  0     835558.206   1925959.811   6550068.505
10 0 59911  11622.000000  0    1517229.821   2462320.164   6241423.502
10 0 59911  11742.000000  0    2181326.681   2943922.100   5823055.716
10 0 59911  11862.000000  0    2815215.125   3362759.209   5302284.771
10 0 59911  11982.000000  0    3406651.564   3712132.021   4688234.398
10 0 59911  12102.000000  0    3944021.650   3986758.443   3991676.256
10 0 59911  12222.000000  0    4416571.634   4182857.878   3224847.571
10 0 59911  12342.000000  0    4814631.677   4298206.598   2401236.237
10 0 59911  12462.000000  0    5129817.028   4332159.654   1535341.089
10 0 59911  12582.000000  0    5355208.783   4285641.837    642412.453
10 0 59911  12702.000000  0    5485506.262   4161105.584   -261824.527
10 0 59911  12822.000000  0    5517146.362   3962457.447  -1161456.146
10 0 59911  12942.000000  0    5448388.305   3694955.044  -2040668.549
10 0 59911  13062.000000  0    5279361.376   3365076.916  -2884032.927
10 0 59911  13182.000000  0    5012075.037   2980369.988  -3676780.543
10 0 59911  13302.000000  0    4650392.310   2549279.119  -4405063.483
10 0 59911  13422.000000  0    4199965.746   2080960.795  -5056195.511
10 0 59911  13542.000000  0    3668139.850   1585087.406  -5618866.438
10 0 59911  13662.000000  0    3063823.020   1071647.800  -6083329.680
10 0 59911  13782.000000  0    2397331.180    550747.383  -6441560.647
10 0 59911  13902.000000  0    1680207.563     32412.078  -6687383.068
10 0 59911  14022.000000  0     925023.441   -473600.380  -6816565.434
10 0 59911  14142.000000  0     145159.216   -957980.284  -6826886.935
10 0 59911  14262.000000  0    -645428.190  -1412032.478  -6718169.500
10 0 59911  14382.000000  0   -1432448.327  -1827827.839  -6492280.943
10 0 59911  14502.000000  0   -2201529.825  -2198339.291  -6153106.944
10 0 59911  14622.000000  0   -2938477.008  -2517559.088  -5706490.672
10 0 59911  14742.000000  0   -3629527.743  -2780596.581  -5160143.283
10 0 59911  14862.000000  0   -4261611.280  -2983755.773  -4523523.049
10 0 59911  14982.000000  0   -4822598.670  -3124589.327  -3807682.039
10 0 59911  15102.000000  0   -5301541.218  -3201928.091  -3025083.806
10 0 59911  15222.000000  0   -5688892.501  -3215885.470  -2189392.951
10 0 59911  15342.000000  0   -5976707.497  -3167835.567  -1315239.076
10 0 59911  15462.000000  0   -6158813.781  -3060365.439   -417959.887
10 0 59911  15582.000000  0   -6230950.062  -2897201.789    486672.334
10 0 59911  15702.000000  0   -6190868.441  -2683114.065   1382735.186
10 0 59911  15822.000000  0   -6038395.582  -2423795.720   2254446.585
10 0 59911  15942.000000  0   -5775450.342  -2125726.227   3086451.523
10 0 59911  16062.000000  0   -5406021.306  -1796018.899   3864099.942
10 0 59911  16182.000000  0   -4936100.440  -1442256.857   4573711.663
10 0 59911  16302.000000  0   -4373576.772  -1072322.119   5202817.937
10 0 59911  16422.000000  0   -3728096.248   -694223.521   5740378.798
10 0 59911  16542.000000  0   -3010888.600   -315925.515   6176974.669
10 0 59911  16662.000000  0   -2234563.750     54818.426   6504966.880
10 0 59911  16782.000000  0   -1412883.533    410622.352   6718624.416
10 0 59911  16902.000000  0    -560514.687    744612.588   6814217.929
10 0 59911  17022.000000  0     307233.573   1050559.207   6790080.404
10 0 59911  17142.000000  0    1174683.677   1322991.557   6646634.276
10 0 59911  17262.000000  0    2026072.097   1557296.458   6386384.492
10 0 59911  17382.000000  0    2845834.914   1749796.438   6013877.331
10 0 59911  17502.000000  0    3618893.439   1897807.686   5535626.652
10 0 59911  17622.000000  0    4330934.771   1999676.475   4960005.238
10 0 59911  17742.000000  0    4968680.662   2054794.285   4297104.829
10 0 59911  17862.000000  0    5520144.045   2063591.378   3558565.656
10 0 59911  17982.000000  0    5974864.367   2027506.403   2757371.733
10 0 59911  18102.000000  0    6324113.164   1948934.869   1907622.802
10 0 59911  18222.000000  0    6561071.539   1831156.853   1024282.927
10 0 59911  18342.000000  0    6680968.785   1678244.525    122909.891
10 0 59911  18462.000000  0    6681181.243   1494953.896   -780627.065
10 0 59911  18582.000000  0    6561286.728   1286601.779  -1670436.100
10 0 59911  18702.000000  0    6323075.883   1058930.650  -2530889.079
10 0 59911  18822.000000  0    5970519.344    817966.315  -3346903.032
10 0 59911  18942.000000  0    5509690.659    569872.628  -4104208.070
10 0 59911  19062.000000  0    4948648.778    320805.940  -4789596.974
10 0 59911  19182.000000  0    4297283.867     76772.944  -5391150.420
10 0 59911  19302.000000  0    3567132.352   -156504.016  -5898435.821
10 0 59911  19422.000000  0    2771164.639   -373711.899  -6302679.057
10 0 59911  19542.000000  0    1923548.613   -570060.108  -6596904.877
10 0 59911  19662.000000  0    1039397.064   -741379.615  -6776045.422
10 0 59911  19782.000000  0     134500.704   -884206.743  -6837019.525
10 0 59911  19902.000000  0    -774949.320   -995849.326  -6778778.870
10 0 59911  20022.000000  0   -1672643.694  -1074435.751  -6602324.146
99
